[
    {
        "Altitude(m)": 605470.763227342,
        "Argument of Periapsis(deg)": 0.0,
        "Eccentricity": 0.0,
        "Inclination(deg)": 60.0,
        "Latitude(deg)": 27.988119224085864,
        "Longitude(deg)": -167.73700345324815,
        "Mean Anomaly(deg)": 147.2727,
        "RAAN(deg)": 130.0,
        "Satellite Name": "Test1 581",
        "Satellite Number": 581,
        "Semi-Major Axis(m)": 6980739.136638005,
        "Time(s)": 0
    },
    {
        "Altitude(m)": 605395.8012643405,
        "Argument of Periapsis(deg)": 0.00010418945913296404,
        "Eccentricity": 0.0,
        "Inclination(deg)": 60.0,
        "Latitude(deg)": 27.473809334689303,
        "Longitude(deg)": -167.3838170189905,
        "Mean Anomaly(deg)": 147.89280614546186,
        "RAAN(deg)": 129.99957995086024,
        "Satellite Name": "Test1 581",
        "Satellite Number": 581,
        "Semi-Major Axis(m)": 6980739.136638005,
        "Time(s)": 10
    }
]